{"type": "FeatureCollection", "features": [ {"type": "Feature", "properties": {"norad_id": 37216, "name": "COSMO-SKYMED 4", "group": "resource", "lat": -78.93327537287306, "lon": -59.92792781832061, "alt_km": 630.8199963958914, "timestamp": "2025-12-09T18:55:16.895389+00:00", "meta": {"OBJECT_NAME": "COSMO-SKYMED 4", "OBJECT_ID": "2010-060A", "EPOCH": "2025-12-09T14:30:05.192064", "MEAN_MOTION": 14.82163307, "ECCENTRICITY": 0.00013891, "INCLINATION": 97.8803, "RA_OF_ASC_NODE": 164.9745, "ARG_OF_PERICENTER": 80.0592, "MEAN_ANOMALY": 280.0778, "EPHEMERIS_TYPE": 0, "CLASSIFICATION_TYPE": "U", "NORAD_CAT_ID": 37216, "ELEMENT_SET_NO": 999, "REV_AT_EPOCH": 81648, "BSTAR": 0.00015030831, "MEAN_MOTION_DOT": 1.145e-05, "MEAN_MOTION_DDOT": 0}, "tle": {"line1": "1 37216U 10060A   25343.60422676  .00001145  00000+0  15031-3 0  9999", "line2": "2 37216  97.8803 164.9745 0001389  80.0592 280.0778 14.82163307816481"}}, "geometry": {"type": "Point", "coordinates": [-59.92792781832061, -78.93327537287306]}}, {"type": "Feature", "properties": {"norad_id": 37387, "name": "RESOURCESAT-2", "group": "resource", "lat": 29.866872954590484, "lon": -127.55006648697176, "alt_km": 819.1663480222305, "timestamp": "2025-12-09T18:55:16.895399+00:00", "meta": {"OBJECT_NAME": "RESOURCESAT-2", "OBJECT_ID": "2011-015A", "EPOCH": "2025-12-09T14:50:31.132032", "MEAN_MOTION": 14.21595479, "ECCENTRICITY": 0.00065744, "INCLINATION": 98.7881, "RA_OF_ASC_NODE": 47.1842, "ARG_OF_PERICENTER": 50.6938, "MEAN_ANOMALY": 309.4822, "EPHEMERIS_TYPE": 0, "CLASSIFICATION_TYPE": "U", "NORAD_CAT_ID": 37387, "ELEMENT_SET_NO": 999, "REV_AT_EPOCH": 75924, "BSTAR": 0.00014768917, "MEAN_MOTION_DOT": 2.79e-06, "MEAN_MOTION_DDOT": 0}, "tle": {"line1": "1 37387U 11015A   25343.61841588  .00000279  00000+0  14769-3 0  9991", "line2": "2 37387  98.7881  47.1842 0006574  50.6938 309.4822 14.21595479759242"}}, "geometry": {"type": "Point", "coordinates": [-127.55006648697176, 29.866872954590484]}}, {"type": "Feature", "properties": {"norad_id": 37781, "name": "HAIYANG-2A", "group": "resource", "lat": -67.10729627510929, "lon": 7.699492281320205, "alt_km": 976.3220267167235, "timestamp": "2025-12-09T18:55:16.895409+00:00", "meta": {"OBJECT_NAME": "HAIYANG-2A", "OBJECT_ID": "2011-043A", "EPOCH": "2025-12-09T14:01:51.586176", "MEAN_MOTION": 13.78834193, "ECCENTRICITY": 0.00016571, "INCLINATION": 99.3375, "RA_OF_ASC_NODE": 344.5672, "ARG_OF_PERICENTER": 86.7494, "MEAN_ANOMALY": 273.3847, "EPHEMERIS_TYPE": 0, "CLASSIFICATION_TYPE": "U", "NORAD_CAT_ID": 37781, "ELEMENT_SET_NO": 999, "REV_AT_EPOCH": 72055, "BSTAR": -7.0715877e-05, "MEAN_MOTION_DOT": -1.16e-06, "MEAN_MOTION_DDOT": 0}, "tle": {"line1": "1 37781U 11043A   25343.58462484 -.00000116  00000+0 -70716-4 0  9997", "line2": "2 37781  99.3375 344.5672 0001657  86.7494 273.3847 13.78834193720552"}}, "geometry": {"type": "Point", "coordinates": [7.699492281320205, -67.10729627510929]}}, {"type": "Feature", "properties": {"norad_id": 37791, "name": "RASAT", "group": "resource", "lat": -3.235934154352229, "lon": -107.36929422812648, "alt_km": 676.3023332674238, "timestamp": "2025-12-09T18:55:16.895420+00:00", "meta": {"OBJECT_NAME": "RASAT", "OBJECT_ID": "2011-044D", "EPOCH": "2025-12-09T15:26:53.814624", "MEAN_MOTION": 14.67902982, "ECCENTRICITY": 0.00219571, "INCLINATION": 98.0653, "RA_OF_ASC_NODE": 72.9475, "ARG_OF_PERICENTER": 74.1637, "MEAN_ANOMALY": 64.4836, "EPHEMERIS_TYPE": 0, "CLASSIFICATION_TYPE": "U", "NORAD_CAT_ID": 37791, "ELEMENT_SET_NO": 999, "REV_AT_EPOCH": 76537, "BSTAR": 0.00019519601, "MEAN_MOTION_DOT": 1.071e-05, "MEAN_MOTION_DDOT": 0}, "tle": {"line1": "1 37791U 11044D   25343.64367841  .00001071  00000+0  19520-3 0  9991", "line2": "2 37791  98.0653  72.9475 0021957  74.1637  64.4836 14.67902982765373"}}, "geometry": {"type": "Point", "coordinates": [-107.36929422812648, -3.235934154352229]}}, {"type": "Feature", "properties": {"norad_id": 37841, "name": "SRMSAT", "group": "resource", "lat": 5.1320184711310874, "lon": -68.50309538343737, "alt_km": 854.8808216432853, "timestamp": "2025-12-09T18:55:16.895431+00:00", "meta": {"OBJECT_NAME": "SRMSAT", "OBJECT_ID": "2011-058D", "EPOCH": "2025-12-09T11:34:01.964352", "MEAN_MOTION": 14.11509916, "ECCENTRICITY": 0.00117074, "INCLINATION": 19.9703, "RA_OF_ASC_NODE": 127.6683, "ARG_OF_PERICENTER": 277.3099, "MEAN_ANOMALY": 127.1435, "EPHEMERIS_TYPE": 0, "CLASSIFICATION_TYPE": "U", "NORAD_CAT_ID": 37841, "ELEMENT_SET_NO": 999, "REV_AT_EPOCH": 73098, "BSTAR": 0.00015527926, "MEAN_MOTION_DOT": 5.51e-06, "MEAN_MOTION_DDOT": 0}, "tle": {"line1": "1 37841U 11058D   25343.48196718  .00000551  00000+0  15528-3 0  9993", "line2": "2 37841  19.9703 127.6683 0011707 277.3099 127.1435 14.11509916730987"}}, "geometry": {"type": "Point", "coordinates": [-68.50309538343737, 5.1320184711310874]}}, {"type": "Feature", "properties": {"norad_id": 38012, "name": "PLEIADES 1A", "group": "resource", "lat": 74.81712204183856, "lon": 24.58346674879307, "alt_km": 689.7529377809369, "timestamp": "2025-12-09T18:55:16.895441+00:00", "meta": {"OBJECT_NAME": "PLEIADES 1A", "OBJECT_ID": "2011-076F", "EPOCH": "2025-12-09T15:59:02.891616", "MEAN_MOTION": 14.5855737, "ECCENTRICITY": 0.0001348, "INCLINATION": 98.1823, "RA_OF_ASC_NODE": 56.4819, "ARG_OF_PERICENTER": 73.3769, "MEAN_ANOMALY": 81.5805, "EPHEMERIS_TYPE": 0, "CLASSIFICATION_TYPE": "U", "NORAD_CAT_ID": 38012, "ELEMENT_SET_NO": 999, "REV_AT_EPOCH": 74436, "BSTAR": 0.00018404565, "MEAN_MOTION_DOT": 8.1e-06, "MEAN_MOTION_DDOT": 0}, "tle": {"line1": "1 38012U 11076F   25343.66600569  .00000810  00000+0  18405-3 0  9993", "line2": "2 38012  98.1823  56.4819 0001348  73.3769  81.5805 14.58557370744367"}}, "geometry": {"type": "Point", "coordinates": [24.58346674879307, 74.81712204183856]}}, {"type": "Feature", "properties": {"norad_id": 38038, "name": "ZIYUAN 1-02C (ZY 1-02C)", "group": "resource", "lat": -22.878126011822953, "lon": -133.73267075098676, "alt_km": 767.7513820972918, "timestamp": "2025-12-09T18:55:16.895452+00:00", "meta": {"OBJECT_NAME": "ZIYUAN 1-02C (ZY 1-02C)", "OBJECT_ID": "2011-079A", "EPOCH": "2025-12-09T15:21:57.441024", "MEAN_MOTION": 14.3800706, "ECCENTRICITY": 0.00070053, "INCLINATION": 98.4333, "RA_OF_ASC_NODE": 49.7111, "ARG_OF_PERICENTER": 146.4997, "MEAN_ANOMALY": 10.0009, "EPHEMERIS_TYPE": 0, "CLASSIFICATION_TYPE": "U", "NORAD_CAT_ID": 38038, "ELEMENT_SET_NO": 999, "REV_AT_EPOCH": 73196, "BSTAR": 0.00028926673, "MEAN_MOTION_DOT": 8.32e-06, "MEAN_MOTION_DDOT": 0}, "tle": {"line1": "1 38038U 11079A   25343.64024816  .00000832  00000+0  28927-3 0  9991", "line2": "2 38038  98.4333  49.7111 0007005 146.4997  10.0009 14.38007060731964"}}, "geometry": {"type": "Point", "coordinates": [-133.73267075098676, -22.878126011822953]}}, {"type": "Feature", "properties": {"norad_id": 38046, "name": "ZIYUAN 3-1 (ZY 3-1)", "group": "resource", "lat": 55.90680694159883, "lon": 39.41161916990622, "alt_km": 358.5830453392791, "timestamp": "2025-12-09T18:55:16.895462+00:00", "meta": {"OBJECT_NAME": "ZIYUAN 3-1 (ZY 3-1)", "OBJECT_ID": "2012-001A", "EPOCH": "2025-12-09T15:37:03.428832", "MEAN_MOTION": 15.67945954, "ECCENTRICITY": 0.00019701, "INCLINATION": 97.1751, "RA_OF_ASC_NODE": 49.9972, "ARG_OF_PERICENTER": 7.6742, "MEAN_ANOMALY": 352.4549, "EPHEMERIS_TYPE": 0, "CLASSIFICATION_TYPE": "U", "NORAD_CAT_ID": 38046, "ELEMENT_SET_NO": 999, "REV_AT_EPOCH": 77448, "BSTAR": 0.00077884729, "MEAN_MOTION_DOT": 0.00086548, "MEAN_MOTION_DDOT": 0}, "tle": {"line1": "1 38046U 12001A   25343.65073413  .00086548  00000+0  77885-3 0  9999", "line2": "2 38046  97.1751  49.9972 0001970   7.6742 352.4549 15.67945954774483"}}, "geometry": {"type": "Point", "coordinates": [39.41161916990622, 55.90680694159883]}}, {"type": "Feature", "properties": {"norad_id": 38338, "name": "ARIRANG-3 (KOMPSAT-3)", "group": "resource", "lat": -57.98211237728306, "lon": -48.09050866343653, "alt_km": 692.0947078288291, "timestamp": "2025-12-09T18:55:16.895472+00:00", "meta": {"OBJECT_NAME": "ARIRANG-3 (KOMPSAT-3)", "OBJECT_ID": "2012-025B", "EPOCH": "2025-12-09T14:15:42.475104", "MEAN_MOTION": 14.61706492, "ECCENTRICITY": 0.00055806, "INCLINATION": 98.3317, "RA_OF_ASC_NODE": 298.16, "ARG_OF_PERICENTER": 349.1958, "MEAN_ANOMALY": 10.9122, "EPHEMERIS_TYPE": 0, "CLASSIFICATION_TYPE": "U", "NORAD_CAT_ID": 38338, "ELEMENT_SET_NO": 999, "REV_AT_EPOCH": 72364, "BSTAR": 0.0002246759, "MEAN_MOTION_DOT": 1.071e-05, "MEAN_MOTION_DDOT": 0}, "tle": {"line1": "1 38338U 12025B   25343.59424161  .00001071  00000+0  22468-3 0  9997", "line2": "2 38338  98.3317 298.1600 0005580 349.1958  10.9122 14.61706492723648"}}, "geometry": {"type": "Point", "coordinates": [-48.09050866343653, -57.98211237728306]}}, {"type": "Feature", "properties": {"norad_id": 38709, "name": "EXACTVIEW-1 (ADS-1B)", "group": "resource", "lat": -30.481721307749215, "lon": 97.4471443854143, "alt_km": 808.236864178828, "timestamp": "2025-12-09T18:55:16.895483+00:00", "meta": {"OBJECT_NAME": "EXACTVIEW-1 (ADS-1B)", "OBJECT_ID": "2012-039C", "EPOCH": "2025-12-09T14:00:35.904096", "MEAN_MOTION": 14.24906198, "ECCENTRICITY": 0.00108373, "INCLINATION": 98.9636, "RA_OF_ASC_NODE": 91.9076, "ARG_OF_PERICENTER": 3.3781, "MEAN_ANOMALY": 356.7468, "EPHEMERIS_TYPE": 0, "CLASSIFICATION_TYPE": "U", "NORAD_CAT_ID": 38709, "ELEMENT_SET_NO": 999, "REV_AT_EPOCH": 69570, "BSTAR": 0.00015812296, "MEAN_MOTION_DOT": 3.23e-06, "MEAN_MOTION_DDOT": 0}, "tle": {"line1": "1 38709U 12039C   25343.58374889  .00000323  00000+0  15812-3 0  9998", "line2": "2 38709  98.9636  91.9076 0010837   3.3781 356.7468 14.24906198695703"}}, "geometry": {"type": "Point", "coordinates": [97.4471443854143, -30.481721307749215]}}]}